NORAD_CAT_ID,OBJECT_NAME,OBJECT_TYPE,EPOCH,MEAN_MOTION,ECCENTRICITY,INCLINATION,RA_OF_ASC_NODE,ARG_OF_PERICENTER,MEAN_ANOMALY,BSTAR,MEAN_MOTION_DOT,MEAN_MOTION_DDOT,TLE_LINE0,TLE_LINE1,TLE_LINE2,SEMIMAJOR_AXIS,PERIOD,APOGEE,PERIGEE,DECAYED
52280.0,STARLINK-3764,PAYLOAD,2023-05-22 08:58:08,15.08833569,0.000117,53.217,18.4761,116.264,243.8473,0.00042533,6.487e-05,0.0,0 STARLINK-3764,1 52280U 22041V   23142.37370770  .00006487  00000-0  42533-3 0  9997,2 52280  53.2170  18.4761 0001170 116.2640 243.8473 15.08833569 61256,6917.9,95.438,540.574,538.956,0.0
52280.0,STARLINK-3764,PAYLOAD,2023-05-22 21:41:13,15.0884633,0.0001139,53.2173,16.0958,123.8634,236.2466,0.00099012,0.00015508,0.0,0 STARLINK-3764,1 52280U 22041V   23142.90362936  .00015508  00000-0  99012-3 0  9999,2 52280  53.2173  16.0958 0001139 123.8634 236.2466 15.08846330 60115,6917.861,95.437,540.514,538.938,0.0
52280.0,STARLINK-3764,PAYLOAD,2023-05-23 00:51:59,15.08855099,0.0001231,53.2169,15.5007,120.6584,239.453,0.0011825,0.00018589,0.0,0 STARLINK-3764,1 52280U 22041V   23143.03610788  .00018589  00000-0  11825-2 0  9992,2 52280  53.2169  15.5007 0001231 120.6584 239.4530 15.08855099 61357,6917.834,95.437,540.551,538.848,0.0
52280.0,STARLINK-3764,PAYLOAD,2023-05-23 21:32:00,15.08845316,0.0001387,53.2176,11.6331,110.7329,249.3812,0.000334,5.032e-05,0.0,0 STARLINK-3764,1 52280U 22041V   23143.89722910  .00005032  00000-0  33400-3 0  9990,2 52280  53.2176  11.6331 0001387 110.7329 249.3812 15.08845316 60264,6917.864,95.437,540.689,538.77,0.0
52280.0,STARLINK-3764,PAYLOAD,2023-05-25 18:02:48,15.08850347,9.59e-05,53.2171,3.3098,101.4109,258.6991,0.00029324,4.383e-05,0.0,0 STARLINK-3764,1 52280U 22041V   23145.75194677  .00004383  00000-0  29324-3 0  9998,2 52280  53.2171   3.3098 0000959 101.4109 258.6991 15.08850347 61761,6917.849,95.437,540.377,539.05,0.0
52280.0,STARLINK-3764,PAYLOAD,2023-05-25 21:13:34,15.08852897,0.0001016,53.2173,2.715,103.0861,257.0245,0.00031178,4.679e-05,0.0,0 STARLINK-3764,1 52280U 22041V   23145.88442478  .00004679  00000-0  31178-3 0  9995,2 52280  53.2173   2.7150 0001016 103.0861 257.0245 15.08852897 60567,6917.841,95.437,540.409,539.003,0.0
52280.0,STARLINK-3764,PAYLOAD,2023-05-26 17:53:35,15.08839229,0.0001187,53.2185,358.846,108.8952,251.2169,-2.6363e-05,-7.07e-06,0.0,0 STARLINK-3764,1 52280U 22041V   23146.74554739 -.00000707  00000-0 -26363-4 0  9996,2 52280  53.2185 358.8460 0001187 108.8952 251.2169 15.08839229 61917,6917.883,95.438,540.569,538.927,0.0
52280.0,STARLINK-3764,PAYLOAD,2023-05-26 19:28:58,15.08838674,0.0001097,53.218,358.5503,105.4883,254.6231,-1.1069e-05,-4.64e-06,0.0,0 STARLINK-3764,1 52280U 22041V   23146.81178862 -.00000464  00000-0 -11069-4 0  9990,2 52280  53.2180 358.5503 0001097 105.4883 254.6231 15.08838674 60709,6917.884,95.438,540.508,538.991,0.0
52280.0,STARLINK-3764,PAYLOAD,2023-05-27 20:55:08,15.08842405,0.0001023,53.2181,353.7934,106.6621,253.4484,-1.6297e-05,-5.47e-06,0.0,0 STARLINK-3764,1 52280U 22041V   23147.87163051 -.00000547  00000-0 -16297-4 0  9991,2 52280  53.2181 353.7934 0001023 106.6621 253.4484 15.08842405 62084,6917.873,95.437,540.446,539.03,0.0
52280.0,STARLINK-3764,PAYLOAD,2023-05-28 20:45:55,15.08843967,9.3e-05,53.2183,349.3329,98.948,261.1618,0.00012683,1.732e-05,0.0,0 STARLINK-3764,1 52280U 22041V   23148.86522843  .00001732  00000-0  12683-3 0  9998,2 52280  53.2183 349.3329 0000930  98.9480 261.1618 15.08843967 61018,6917.868,95.437,540.377,539.09,0.0
52280.0,STARLINK-3764,PAYLOAD,2023-05-28 23:56:41,15.08847321,9.54e-05,53.2182,348.738,102.3848,257.7251,0.00015768,2.223e-05,0.0,0 STARLINK-3764,1 52280U 22041V   23148.99770554  .00002223  00000-0  15768-3 0  9999,2 52280  53.2182 348.7380 0000954 102.3848 257.7251 15.08847321 62250,6917.858,95.437,540.383,539.063,0.0
52280.0,STARLINK-3764,PAYLOAD,2023-05-29 17:25:57,15.08835758,9.33e-05,53.2175,345.4657,108.7002,251.4091,9.4125e-05,1.21e-05,0.0,0 STARLINK-3764,1 52280U 22041V   23149.72635439  .00001210  00000-0  94125-4 0  9993,2 52280  53.2175 345.4657 0000933 108.7002 251.4091 15.08835758 62368,6917.893,95.438,540.404,539.113,0.0
52280.0,STARLINK-3764,PAYLOAD,2023-05-29 20:36:43,15.08841395,8.72e-05,53.218,344.8704,105.0661,255.0428,5.3152e-05,5.58e-06,0.0,0 STARLINK-3764,1 52280U 22041V   23149.85883224  .00000558  00000-0  53152-4 0  9993,2 52280  53.2180 344.8704 0000872 105.0661 255.0428 15.08841395 61168,6917.876,95.437,540.344,539.138,0.0
52280.0,STARLINK-3764,PAYLOAD,2023-05-30 12:30:34,15.0884023,9.25e-05,53.2184,341.8969,89.1338,270.976,1.0854e-05,-1.15e-06,0.0,0 STARLINK-3764,1 52280U 22041V   23150.52123615 -.00000115  00000-0  10854-4 0  9992,2 52280  53.2184 341.8969 0000925  89.1338 270.9760 15.08840230 61267,6917.88,95.438,540.385,539.105,0.0
52280.0,STARLINK-3764,PAYLOAD,2023-05-30 18:52:06,15.08844762,8.42e-05,53.2179,340.7086,80.2395,279.8693,6.6302e-05,7.68e-06,0.0,0 STARLINK-3764,1 52280U 22041V   23150.78619113  .00000768  00000-0  66302-4 0  9995,2 52280  53.2179 340.7086 0000842  80.2395 279.8693 15.08844762 62529,6917.866,95.437,540.313,539.148,0.0
52280.0,STARLINK-3764,PAYLOAD,2023-05-30 20:27:29,15.08846521,8.98e-05,53.218,340.411,80.1812,279.9281,7.9105e-05,9.72e-06,0.0,0 STARLINK-3764,1 52280U 22041V   23150.85242977  .00000972  00000-0  79105-4 0  9995,2 52280  53.2180 340.4110 0000898  80.1812 279.9281 15.08846521 61315,6917.86,95.437,540.347,539.104,0.0
52280.0,STARLINK-3764,PAYLOAD,2023-05-31 05:59:48,15.08845791,8.14e-05,53.2177,338.6281,87.764,272.3445,4.8522e-05,4.85e-06,0.0,0 STARLINK-3764,1 52280U 22041V   23151.24987025  .00000485  00000-0  48522-4 0  9997,2 52280  53.2177 338.6281 0000814  87.7640 272.3445 15.08845791 61372,6917.863,95.437,540.291,539.165,0.0
52280.0,STARLINK-3764,PAYLOAD,2023-05-31 18:42:54,15.08841541,9.25e-05,53.2175,336.2492,73.8584,286.251,9.0026e-05,1.145e-05,0.0,0 STARLINK-3764,1 52280U 22041V   23151.77979284  .00001145  00000-0  90026-4 0  9993,2 52280  53.2175 336.2492 0000925  73.8584 286.2510 15.08841541 61459,6917.876,95.437,540.381,539.101,0.0
52280.0,STARLINK-3764,PAYLOAD,2023-06-01 05:50:35,15.08845153,9.35e-05,53.2174,334.1676,73.3613,286.7482,0.0001241,1.688e-05,0.0,0 STARLINK-3764,1 52280U 22041V   23152.24346934  .00001688  00000-0  12410-3 0  9998,2 52280  53.2174 334.1676 0000935  73.3613 286.7482 15.08845153 61522,6917.865,95.437,540.376,539.083,0.0
52280.0,STARLINK-3764,PAYLOAD,2023-06-02 18:24:28,15.08840184,9.49e-05,53.2185,327.3267,91.9121,268.1979,3.2563e-05,2.31e-06,0.0,0 STARLINK-3764,1 52280U 22041V   23153.76699429  .00000231  00000-0  32563-4 0  9991,2 52280  53.2185 327.3267 0000949  91.9121 268.1979 15.08840184 62973,6917.88,95.438,540.401,539.088,0.0
52280.0,STARLINK-3764,PAYLOAD,2023-06-03 11:53:42,15.08838066,9.02e-05,53.2181,324.0565,94.5726,265.5369,3.6894e-05,2.99e-06,0.0,0 STARLINK-3764,1 52280U 22041V   23154.49563649  .00000299  00000-0  36894-4 0  9991,2 52280  53.2181 324.0565 0000902  94.5726 265.5369 15.08838066 61860,6917.886,95.438,540.375,539.127,0.0
52280.0,STARLINK-3764,PAYLOAD,2023-06-03 18:15:15,15.0884368,8.7e-05,53.2175,322.8683,94.4222,265.687,8.8475e-05,1.121e-05,0.0,0 STARLINK-3764,1 52280U 22041V   23154.76059197  .00001121  00000-0  88475-4 0  9996,2 52280  53.2175 322.8683 0000870  94.4222 265.6870 15.08843680 61905,6917.869,95.437,540.336,539.132,0.0
52280.0,STARLINK-3764,PAYLOAD,2023-06-04 10:09:07,15.08833378,8.88e-05,53.2174,319.8955,96.0767,264.0327,9.0589e-05,1.154e-05,0.0,0 STARLINK-3764,1 52280U 22041V   23155.42299985  .00001154  00000-0  90589-4 0  9996,2 52280  53.2174 319.8955 0000888  96.0767 264.0327 15.08833378 63223,6917.901,95.438,540.38,539.151,0.0
52280.0,STARLINK-3764,PAYLOAD,2023-06-04 14:55:16,15.08834436,8.69e-05,53.2175,319.0033,95.4865,264.6226,6.4105e-05,7.33e-06,0.0,0 STARLINK-3764,1 52280U 22041V   23155.62172044  .00000733  00000-0  64105-4 0  9991,2 52280  53.2175 319.0033 0000869  95.4865 264.6226 15.08834436 62032,6917.897,95.438,540.364,539.161,0.0
52280.0,STARLINK-3764,PAYLOAD,2023-06-04 16:30:39,15.08835267,8.75e-05,53.2175,318.7055,99.3563,260.7528,6.1658e-05,6.94e-06,0.0,0 STARLINK-3764,1 52280U 22041V   23155.68795999  .00000694  00000-0  61658-4 0  9993,2 52280  53.2175 318.7055 0000875  99.3563 260.7528 15.08835267 62043,6917.895,95.438,540.365,539.155,0.0
52280.0,STARLINK-3764,PAYLOAD,2023-06-05 03:38:21,15.08835606,7.93e-05,53.2176,316.6245,88.8631,271.2452,3.3162e-05,2.4e-06,0.0,0 STARLINK-3764,1 52280U 22041V   23156.15164028  .00000240  00000-0  33162-4 0  9995,2 52280  53.2176 316.6245 0000793  88.8631 271.2452 15.08835606 62118,6917.894,95.438,540.307,539.21,0.0
52280.0,STARLINK-3764,PAYLOAD,2023-06-05 19:32:12,15.08845871,8.61e-05,53.2174,313.6502,109.1022,251.0063,9.4841e-05,1.222e-05,0.0,0 STARLINK-3764,1 52280U 22041V   23156.81403267  .00001222  00000-0  94841-4 0  9991,2 52280  53.2174 313.6502 0000861 109.1022 251.0063 15.08845871 62216,6917.862,95.437,540.323,539.132,0.0
52280.0,STARLINK-3764,PAYLOAD,2023-06-06 05:04:31,15.08838314,8.97e-05,53.2173,311.8631,107.5087,252.6003,4.619e-05,4.47e-06,0.0,0 STARLINK-3764,1 52280U 22041V   23157.21147798  .00000447  00000-0  46190-4 0  9992,2 52280  53.2173 311.8631 0000897 107.5087 252.6003 15.08838314 63496,6917.886,95.438,540.371,539.13,0.0
52280.0,STARLINK-3764,PAYLOAD,2023-06-06 13:01:27,15.0883583,8.85e-05,53.2176,310.3791,88.9416,271.1678,7.4068e-05,8.91e-06,0.0,0 STARLINK-3764,1 52280U 22041V   23157.54268095  .00000891  00000-0  74068-4 0  9990,2 52280  53.2176 310.3791 0000885  88.9416 271.1678 15.08835830 62320,6917.893,95.438,540.37,539.146,0.0
52280.0,STARLINK-3764,PAYLOAD,2023-06-06 14:36:50,15.08836896,9.35e-05,53.2175,310.0812,86.0459,274.064,8.476e-05,1.061e-05,0.0,0 STARLINK-3764,1 52280U 22041V   23157.60892095  .00001061  00000-0  84760-4 0  9990,2 52280  53.2175 310.0812 0000935  86.0459 274.0640 15.08836896 62337,6917.89,95.438,540.402,539.108,0.0
